OBJECT_NAME,OBJECT_ID,EPOCH,MEAN_MOTION,ECCENTRICITY,INCLINATION,RA_OF_ASC_NODE,ARG_OF_PERICENTER,MEAN_ANOMALY,EPHEMERIS_TYPE,CLASSIFICATION_TYPE,NORAD_CAT_ID,ELEMENT_SET_NO,REV_AT_EPOCH,BSTAR,MEAN_MOTION_DOT,MEAN_MOTION_DDOT
ONEWEB-0230,2021-045C,2026-07-08T03:45:27.791424,13.15548218,.0001951,87.8984,255.0261,96.2384,263.8968,0,U,48769,999,24742,.30451E-3,.127E-5,0
ONEWEB-0237,2021-045D,2026-07-07T16:32:20.960736,13.15547599,.0002397,87.8984,255.1208,99.3127,260.8275,0,U,48770,999,24708,.33824E-4,.26E-6,0
ONEWEB-0235,2021-045E,2026-07-08T02:52:58.177920,13.15549910,.0002088,87.9001,255.0220,110.5086,249.6268,0,U,48771,999,24713,-.90509E-4,-.21E-6,0
ONEWEB-0242,2021-045F,2026-07-08T04:33:22.718592,13.15548966,.0001931,87.9003,255.0057,102.1471,257.9876,0,U,48772,999,24718,.1975E-3,.87E-6,0
ONEWEB-0241,2021-045G,2026-07-07T17:17:58.015968,13.15550864,.000225,87.8997,255.1136,103.3533,256.7848,0,U,48773,999,24703,.34828E-3,.144E-5,0
ONEWEB-0243,2021-045H,2026-07-08T03:11:13.956288,13.15550681,.0001682,87.8989,255.0459,110.2406,249.8906,0,U,48774,999,24711,-.17067E-3,-.51E-6,0
ONEWEB-0222,2021-045J,2026-07-07T17:39:38.710080,13.15546908,.0002157,87.9000,255.0940,100.8237,259.3136,0,U,48775,999,24710,-.69927E-4,-.13E-6,0
ONEWEB-0244,2021-045K,2026-07-08T03:24:55.502784,13.15547861,.0002016,87.9001,255.0088,102.0894,258.0462,0,U,48776,999,24772,-.18991E-3,-.59E-6,0
ONEWEB-0247,2021-045L,2026-07-07T16:23:13.661664,13.15548563,.0001836,87.8987,255.1297,122.6214,237.5094,0,U,48777,999,24710,-.31991E-3,-.108E-5,0
ONEWEB-0245,2021-045M,2026-07-08T03:13:30.349056,13.15549447,.0002224,87.9000,255.0209,101.7236,258.4144,0,U,48778,999,24713,-.27461E-3,-.91E-6,0
ONEWEB-0229,2021-045N,2026-07-07T16:09:31.837824,13.15547672,.000196,87.8999,255.1104,100.4670,259.6681,0,U,48779,999,24710,-.32778E-3,-.111E-5,0
ONEWEB-0228,2021-045P,2026-07-08T03:54:47.012832,13.15549670,.0002109,87.9004,255.0069,101.8712,258.2655,0,U,48780,999,24708,.40163E-3,.164E-5,0
ONEWEB-0232,2021-045Q,2026-07-08T03:18:04.847040,13.15548063,.0002177,87.8999,255.0120,99.7654,260.3723,0,U,48781,999,24740,-.21679E-3,-.69E-6,0
ONEWEB-0231,2021-045R,2026-07-08T02:46:07.762368,13.15547518,.0002127,87.8997,255.0283,105.1787,254.9579,0,U,48782,999,24709,.63176E-4,.37E-6,0
ONEWEB-0234,2021-045S,2026-07-08T03:40:41.714112,13.15547637,.0002873,87.8997,255.0032,92.2609,267.8850,0,U,48783,999,24723,.16249E-3,.74E-6,0
ONEWEB-0238,2021-045T,2026-07-08T03:41:04.509024,13.15548321,.0002479,87.9000,254.9987,94.8946,265.2467,0,U,48784,999,24713,.10083E-3,.51E-6,0
ONEWEB-0240,2021-045U,2026-07-07T17:14:33.755136,13.15548813,.0002279,87.9003,255.0948,104.7196,255.4187,0,U,48785,999,24710,.20523E-3,.9E-6,0
ONEWEB-0246,2021-045V,2026-07-08T04:03:42.611616,13.15547435,.0001968,87.8996,255.0093,100.6563,259.4789,0,U,48786,999,24703,.36606E-3,.151E-5,0
ONEWEB-0210,2021-045W,2026-07-08T03:27:12.088224,13.15547856,.0001556,87.9000,255.0116,120.7721,239.3563,0,U,48787,999,24707,-.16465E-3,-.49E-6,0
ONEWEB-0214,2021-045X,2026-07-07T16:42:35.499744,13.15547806,.0001725,87.9001,255.0976,98.1977,261.9349,0,U,48788,999,24698,-.59867E-3,-.213E-5,0
ONEWEB-0221,2021-045Y,2026-07-08T03:50:01.663008,13.15548115,.0002084,87.8997,255.0141,104.6956,255.4405,0,U,48789,999,24713,.36938E-3,.152E-5,0
ONEWEB-0213,2021-045Z,2026-07-08T03:34:03.202752,13.15548543,.0002004,87.8998,255.0191,106.8683,253.2667,0,U,48790,999,24719,-.13186E-3,-.37E-6,0
ONEWEB-0212,2021-045AA,2026-07-08T03:00:56.439072,13.15547204,.0002107,87.9000,255.0178,98.3813,261.7556,0,U,48791,999,24718,-.12419E-3,-.34E-6,0
ONEWEB-0227,2021-045AB,2026-07-07T17:52:12.492192,13.15547579,.0002089,87.8997,255.0940,101.0231,259.1134,0,U,48792,999,24708,-.20233E-3,-.63E-6,0
ONEWEB-0226,2021-045AC,2026-07-08T02:50:41.460288,13.15547481,.0001901,87.8998,255.0240,104.4199,255.7143,0,U,48793,999,24710,.20612E-4,.21E-6,0
ONEWEB-0224,2021-045AD,2026-07-08T03:47:44.905632,13.15548258,.0002929,87.8988,255.0493,104.7975,255.3480,0,U,48794,999,24703,.2161E-3,.94E-6,0
ONEWEB-0233,2021-045AE,2026-07-08T03:54:23.913792,13.15550325,.0002181,87.8987,255.0556,106.3427,253.7943,0,U,48795,999,24705,.33466E-3,.139E-5,0
ONEWEB-0190,2021-045AF,2026-07-08T03:36:20.013696,13.15548389,.0002042,87.8996,255.0211,118.2271,241.9065,0,U,48796,999,24712,.41757E-5,.14E-6,0
ONEWEB-0236,2021-045AG,2026-07-08T04:01:25.703040,13.15575206,.0002195,87.8993,255.0256,97.0394,263.0986,0,U,48797,999,24701,-.14384E-1,-.5401E-4,0
ONEWEB-0248,2021-045AH,2026-07-08T04:19:41.153088,13.15549183,.000233,87.8999,255.0093,109.6566,250.4816,0,U,48798,999,24717,.4058E-3,.166E-5,0
