ONEWEB-0230             
1 48769U 21045C   26189.15657166  .00000127  00000+0  30451-3 0  9994
2 48769  87.8984 255.0261 0001951  96.2384 263.8968 13.15548218247428
ONEWEB-0237             
1 48770U 21045D   26188.68913149  .00000026  00000+0  33824-4 0  9995
2 48770  87.8984 255.1208 0002397  99.3127 260.8275 13.15547599247087
ONEWEB-0235             
1 48771U 21045E   26189.12011780 -.00000021  00000+0 -90509-4 0  9996
2 48771  87.9001 255.0220 0002088 110.5086 249.6268 13.15549910247131
ONEWEB-0242             
1 48772U 21045F   26189.18984628  .00000087  00000+0  19750-3 0  9991
2 48772  87.9003 255.0057 0001931 102.1471 257.9876 13.15548966247185
ONEWEB-0241             
1 48773U 21045G   26188.72081037  .00000144  00000+0  34828-3 0  9990
2 48773  87.8997 255.1136 0002250 103.3533 256.7848 13.15550864247033
ONEWEB-0243             
1 48774U 21045H   26189.13280042 -.00000051  00000+0 -17067-3 0  9999
2 48774  87.8989 255.0459 0001682 110.2406 249.8906 13.15550681247110
ONEWEB-0222             
1 48775U 21045J   26188.73586470 -.00000013  00000+0 -69927-4 0  9990
2 48775  87.9000 255.0940 0002157 100.8237 259.3136 13.15546908247103
ONEWEB-0244             
1 48776U 21045K   26189.14230906 -.00000059  00000+0 -18991-3 0  9991
2 48776  87.9001 255.0088 0002016 102.0894 258.0462 13.15547861247720
ONEWEB-0247             
1 48777U 21045L   26188.68279701 -.00000108  00000+0 -31991-3 0  9996
2 48777  87.8987 255.1297 0001836 122.6214 237.5094 13.15548563247104
ONEWEB-0245             
1 48778U 21045M   26189.13437904 -.00000091  00000+0 -27461-3 0  9997
2 48778  87.9000 255.0209 0002224 101.7236 258.4144 13.15549447247131
ONEWEB-0229             
1 48779U 21045N   26188.67328516 -.00000111  00000+0 -32778-3 0  9994
2 48779  87.8999 255.1104 0001960 100.4670 259.6681 13.15547672247101
ONEWEB-0228             
1 48780U 21045P   26189.16304413  .00000164  00000+0  40163-3 0  9994
2 48780  87.9004 255.0069 0002109 101.8712 258.2655 13.15549670247081
ONEWEB-0232             
1 48781U 21045Q   26189.13755610 -.00000069  00000+0 -21679-3 0  9998
2 48781  87.8999 255.0120 0002177  99.7654 260.3723 13.15548063247408
ONEWEB-0231             
1 48782U 21045R   26189.11536762  .00000037  00000+0  63176-4 0  9994
2 48782  87.8997 255.0283 0002127 105.1787 254.9579 13.15547518247098
ONEWEB-0234             
1 48783U 21045S   26189.15326058  .00000074  00000+0  16249-3 0  9993
2 48783  87.8997 255.0032 0002873  92.2609 267.8850 13.15547637247231
ONEWEB-0238             
1 48784U 21045T   26189.15352441  .00000051  00000+0  10083-3 0  9994
2 48784  87.9000 254.9987 0002479  94.8946 265.2467 13.15548321247135
ONEWEB-0240             
1 48785U 21045U   26188.71844624  .00000090  00000+0  20523-3 0  9998
2 48785  87.9003 255.0948 0002279 104.7196 255.4187 13.15548813247107
ONEWEB-0246             
1 48786U 21045V   26189.16924319  .00000151  00000+0  36606-3 0  9996
2 48786  87.8996 255.0093 0001968 100.6563 259.4789 13.15547435247039
ONEWEB-0210             
1 48787U 21045W   26189.14388991 -.00000049  00000+0 -16465-3 0  9994
2 48787  87.9000 255.0116 0001556 120.7721 239.3563 13.15547856247073
ONEWEB-0214             
1 48788U 21045X   26188.69624421 -.00000213  00000+0 -59867-3 0  9991
2 48788  87.9001 255.0976 0001725  98.1977 261.9349 13.15547806246985
ONEWEB-0221             
1 48789U 21045Y   26189.15974147  .00000152  00000+0  36938-3 0  9991
2 48789  87.8997 255.0141 0002084 104.6956 255.4405 13.15548115247135
ONEWEB-0213             
1 48790U 21045Z   26189.14864818 -.00000037  00000+0 -13186-3 0  9999
2 48790  87.8998 255.0191 0002004 106.8683 253.2667 13.15548543247193
ONEWEB-0212             
1 48791U 21045AA  26189.12565323 -.00000034  00000+0 -12419-3 0  9992
2 48791  87.9000 255.0178 0002107  98.3813 261.7556 13.15547204247181
ONEWEB-0227             
1 48792U 21045AB  26188.74458903 -.00000063  00000+0 -20233-3 0  9990
2 48792  87.8997 255.0940 0002089 101.0231 259.1134 13.15547579247085
ONEWEB-0226             
1 48793U 21045AC  26189.11853542  .00000021  00000+0  20612-4 0  9995
2 48793  87.8998 255.0240 0001901 104.4199 255.7143 13.15547481247109
ONEWEB-0224             
1 48794U 21045AD  26189.15815863  .00000094  00000+0  21610-3 0  9992
2 48794  87.8988 255.0493 0002929 104.7975 255.3480 13.15548258247030
ONEWEB-0233             
1 48795U 21045AE  26189.16277678  .00000139  00000+0  33466-3 0  9992
2 48795  87.8987 255.0556 0002181 106.3427 253.7943 13.15550325247056
ONEWEB-0190             
1 48796U 21045AF  26189.15023164  .00000014  00000+0  41757-5 0  9997
2 48796  87.8996 255.0211 0002042 118.2271 241.9065 13.15548389247129
ONEWEB-0236             
1 48797U 21045AG  26189.16765860 -.00005401  00000+0 -14384-1 0  9994
2 48797  87.8993 255.0256 0002195  97.0394 263.0986 13.15575206247018
ONEWEB-0248             
1 48798U 21045AH  26189.18033742  .00000166  00000+0  40580-3 0  9994
2 48798  87.8999 255.0093 0002330 109.6566 250.4816 13.15549183247170
